{"type":"FeatureCollection","features":[{"type":"Feature","geometry":{"type":"Point","coordinates":[75.768,11.2524]},"properties":{"name":"Kozhikode","labelRank":3}},{"type":"Feature","geometry":{"type":"Point","coordinates":[85.8254,20.2724]},"properties":{"name":"Bhubaneswar","labelRank":3}},{"type":"Feature","geometry":{"type":"Point","coordinates":[86.1956,22.7895]},"properties":{"name":"Jamshedpur","labelRank":3}},{"type":"Feature","geometry":{"type":"Point","coordinates":[-56.1868,-34.9054]},"properties":{"name":"Montevideo","labelRank":3}},{"type":"Feature","geometry":{"type":"Point","coordinates":[-112.0353,46.5927]},"properties":{"name":"Helena","labelRank":3}},{"type":"Feature","geometry":{"type":"Point","coordinates":[-100.7833,46.8083]},"properties":{"name":"Bismarck","labelRank":3}},{"type":"Feature","geometry":{"type":"Point","coordinates":[-116.2275,43.6086]},"properties":{"name":"Boise","labelRank":3}},{"type":"Feature","geometry":{"type":"Point","coordinates":[-121.8882,37.3309]},"properties":{"name":"San Jose","labelRank":3}},{"type":"Feature","geometry":{"type":"Point","coordinates":[-121.472,38.577]},"properties":{"name":"Sacramento","labelRank":3}},{"type":"Feature","geometry":{"type":"Point","coordinates":[-115.1514,36.1648]},"properties":{"name":"Las Vegas","labelRank":3}},{"type":"Feature","geometry":{"type":"Point","coordinates":[-105.9372,35.6869]},"properties":{"name":"Santa Fe","labelRank":3}},{"type":"Feature","geometry":{"type":"Point","coordinates":[-122.6819,45.522]},"properties":{"name":"Portland","labelRank":3}},{"type":"Feature","geometry":{"type":"Point","coordinates":[-111.932,40.777]},"properties":{"name":"Salt Lake City","labelRank":3}},{"type":"Feature","geometry":{"type":"Point","coordinates":[-104.8197,41.14]},"properties":{"name":"Cheyenne","labelRank":3}},{"type":"Feature","geometry":{"type":"Point","coordinates":[-93.62,41.58]},"properties":{"name":"Des Moines","labelRank":3}},{"type":"Feature","geometry":{"type":"Point","coordinates":[-96.01,41.24]},"properties":{"name":"Omaha","labelRank":3}},{"type":"Feature","geometry":{"type":"Point","coordinates":[-97.5206,35.472]},"properties":{"name":"Oklahoma City","labelRank":3}},{"type":"Feature","geometry":{"type":"Point","coordinates":[-100.3506,44.3683]},"properties":{"name":"Pierre","labelRank":3}},{"type":"Feature","geometry":{"type":"Point","coordinates":[-98.4927,29.4198]},"properties":{"name":"San Antonio","labelRank":3}},{"type":"Feature","geometry":{"type":"Point","coordinates":[-72.25,7.77]},"properties":{"name":"San Cristóbal","labelRank":3}},{"type":"Feature","geometry":{"type":"Point","coordinates":[-67.982,10.2319]},"properties":{"name":"Valencia","labelRank":3}},{"type":"Feature","geometry":{"type":"Point","coordinates":[-90.185,32.2988]},"properties":{"name":"Jackson","labelRank":3}},{"type":"Feature","geometry":{"type":"Point","coordinates":[-78.647,35.7727]},"properties":{"name":"Raleigh","labelRank":3}},{"type":"Feature","geometry":{"type":"Point","coordinates":[-81.6969,41.4719]},"properties":{"name":"Cleveland","labelRank":3}},{"type":"Feature","geometry":{"type":"Point","coordinates":[-84.4589,39.1638]},"properties":{"name":"Cincinnati","labelRank":3}},{"type":"Feature","geometry":{"type":"Point","coordinates":[-86.7819,36.1719]},"properties":{"name":"Nashville","labelRank":3}},{"type":"Feature","geometry":{"type":"Point","coordinates":[-90.0288,35.1447]},"properties":{"name":"Memphis","labelRank":3}},{"type":"Feature","geometry":{"type":"Point","coordinates":[-76.28,36.85]},"properties":{"name":"Norfolk","labelRank":3}},{"type":"Feature","geometry":{"type":"Point","coordinates":[-87.9167,43.0296]},"properties":{"name":"Milwaukee","labelRank":3}},{"type":"Feature","geometry":{"type":"Point","coordinates":[-78.8819,42.8819]},"properties":{"name":"Buffalo","labelRank":3}},{"type":"Feature","geometry":{"type":"Point","coordinates":[-80.0019,40.4319]},"properties":{"name":"Pittsburgh","labelRank":3}},{"type":"Feature","geometry":{"type":"Point","coordinates":[-62.62,8.37]},"properties":{"name":"Ciudad Guayana","labelRank":3}},{"type":"Feature","geometry":{"type":"Point","coordinates":[1.2208,6.1339]},"properties":{"name":"Lomé","labelRank":3}},{"type":"Feature","geometry":{"type":"Point","coordinates":[10.1797,36.8028]},"properties":{"name":"Tunis","labelRank":3}},{"type":"Feature","geometry":{"type":"Point","coordinates":[-152.407,57.79]},"properties":{"name":"Kodiak","labelRank":3}},{"type":"Feature","geometry":{"type":"Point","coordinates":[-162.7151,55.2]},"properties":{"name":"Cold Bay","labelRank":3}},{"type":"Feature","geometry":{"type":"Point","coordinates":[-161.7558,60.7933]},"properties":{"name":"Bethel","labelRank":3}},{"type":"Feature","geometry":{"type":"Point","coordinates":[-166.808,68.3477]},"properties":{"name":"Point Hope","labelRank":3}},{"type":"Feature","geometry":{"type":"Point","coordinates":[-156.7886,71.2906]},"properties":{"name":"Utqiaġvik","labelRank":3}},{"type":"Feature","geometry":{"type":"Point","coordinates":[-165.4064,64.5061]},"properties":{"name":"Nome","labelRank":3}},{"type":"Feature","geometry":{"type":"Point","coordinates":[-146.3483,61.136]},"properties":{"name":"Valdez","labelRank":3}},{"type":"Feature","geometry":{"type":"Point","coordinates":[-134.4007,58.3034]},"properties":{"name":"Juneau","labelRank":3}},{"type":"Feature","geometry":{"type":"Point","coordinates":[-147.7107,64.837]},"properties":{"name":"Fairbanks","labelRank":3}},{"type":"Feature","geometry":{"type":"Point","coordinates":[-148.6694,70.2922]},"properties":{"name":"Prudhoe Bay","labelRank":3}},{"type":"Feature","geometry":{"type":"Point","coordinates":[33.5244,44.6039]},"properties":{"name":"Sevastopol","labelRank":3}},{"type":"Feature","geometry":{"type":"Point","coordinates":[54.3666,24.4667]},"properties":{"name":"Abu Dhabi","labelRank":3}},{"type":"Feature","geometry":{"type":"Point","coordinates":[58.3833,37.95]},"properties":{"name":"Ashgabat","labelRank":3}},{"type":"Feature","geometry":{"type":"Point","coordinates":[66.945,39.67]},"properties":{"name":"Samarkand","labelRank":3}},{"type":"Feature","geometry":{"type":"Point","coordinates":[28.2814,-15.4147]},"properties":{"name":"Lusaka","labelRank":3}},{"type":"Feature","geometry":{"type":"Point","coordinates":[31.0428,-17.8158]},"properties":{"name":"Harare","labelRank":3}},{"type":"Feature","geometry":{"type":"Point","coordinates":[28.58,-20.17]},"properties":{"name":"Bulawayo","labelRank":3}},{"type":"Feature","geometry":{"type":"Point","coordinates":[125.5795,-8.5594]},"properties":{"name":"Dili","labelRank":3}},{"type":"Feature","geometry":{"type":"Point","coordinates":[168.3166,-17.7334]},"properties":{"name":"Port Vila","labelRank":3}},{"type":"Feature","geometry":{"type":"Point","coordinates":[-87.2195,14.104]},"properties":{"name":"Tegucigalpa","labelRank":3}},{"type":"Feature","geometry":{"type":"Point","coordinates":[-58.167,6.802]},"properties":{"name":"Georgetown","labelRank":3}},{"type":"Feature","geometry":{"type":"Point","coordinates":[-21.9365,64.1435]},"properties":{"name":"Reykjavík","labelRank":3}},{"type":"Feature","geometry":{"type":"Point","coordinates":[-72.338,18.543]},"properties":{"name":"Port-au-Prince","labelRank":3}},{"type":"Feature","geometry":{"type":"Point","coordinates":[-4.2391,55.8623]},"properties":{"name":"Glasgow","labelRank":3}},{"type":"Feature","geometry":{"type":"Point","coordinates":[32.5814,0.3186]},"properties":{"name":"Kampala","labelRank":3}},{"type":"Feature","geometry":{"type":"Point","coordinates":[45.0095,12.7797]},"properties":{"name":"Aden","labelRank":3}},{"type":"Feature","geometry":{"type":"Point","coordinates":[-55.167,5.835]},"properties":{"name":"Paramaribo","labelRank":3}},{"type":"Feature","geometry":{"type":"Point","coordinates":[-5.98,37.405]},"properties":{"name":"Seville","labelRank":3}},{"type":"Feature","geometry":{"type":"Point","coordinates":[8.9833,13.8]},"properties":{"name":"Zinder","labelRank":3}},{"type":"Feature","geometry":{"type":"Point","coordinates":[2.1147,13.5187]},"properties":{"name":"Niamey","labelRank":3}},{"type":"Feature","geometry":{"type":"Point","coordinates":[37.2164,19.6158]},"properties":{"name":"Port Sudan","labelRank":3}},{"type":"Feature","geometry":{"type":"Point","coordinates":[68.7739,38.56]},"properties":{"name":"Dushanbe","labelRank":3}},{"type":"Feature","geometry":{"type":"Point","coordinates":[-71.9722,-13.525]},"properties":{"name":"Cusco","labelRank":3}},{"type":"Feature","geometry":{"type":"Point","coordinates":[-70.25,-18]},"properties":{"name":"Tacna","labelRank":3}},{"type":"Feature","geometry":{"type":"Point","coordinates":[-79.02,-8.12]},"properties":{"name":"Trujillo","labelRank":3}},{"type":"Feature","geometry":{"type":"Point","coordinates":[-75.7255,-14.068]},"properties":{"name":"Ica","labelRank":3}},{"type":"Feature","geometry":{"type":"Point","coordinates":[-57.6258,-25.2907]},"properties":{"name":"Asunción","labelRank":3}},{"type":"Feature","geometry":{"type":"Point","coordinates":[-86.2704,12.155]},"properties":{"name":"Managua","labelRank":3}},{"type":"Feature","geometry":{"type":"Point","coordinates":[-13.2362,8.472]},"properties":{"name":"Freetown","labelRank":3}},{"type":"Feature","geometry":{"type":"Point","coordinates":[7.9828,16.9959]},"properties":{"name":"Agadez","labelRank":3}},{"type":"Feature","geometry":{"type":"Point","coordinates":[24.89,12.06]},"properties":{"name":"Nyala","labelRank":3}},{"type":"Feature","geometry":{"type":"Point","coordinates":[27.99,7.7]},"properties":{"name":"Wau","labelRank":3}},{"type":"Feature","geometry":{"type":"Point","coordinates":[30.4833,19.1666]},"properties":{"name":"Dongola","labelRank":3}},{"type":"Feature","geometry":{"type":"Point","coordinates":[36.39,15.46]},"properties":{"name":"Kassala","labelRank":3}},{"type":"Feature","geometry":{"type":"Point","coordinates":[18.992,69.6351]},"properties":{"name":"Tromsø","labelRank":3}},{"type":"Feature","geometry":{"type":"Point","coordinates":[10.4167,63.4167]},"properties":{"name":"Trondheim","labelRank":3}},{"type":"Feature","geometry":{"type":"Point","coordinates":[5.3245,60.391]},"properties":{"name":"Bergen","labelRank":3}},{"type":"Feature","geometry":{"type":"Point","coordinates":[73.0806,33.6894]},"properties":{"name":"Islamabad","labelRank":3}},{"type":"Feature","geometry":{"type":"Point","coordinates":[71.4531,30.2019]},"properties":{"name":"Multan","labelRank":3}},{"type":"Feature","geometry":{"type":"Point","coordinates":[68.373,25.3819]},"properties":{"name":"Hyderabad","labelRank":3}},{"type":"Feature","geometry":{"type":"Point","coordinates":[71.5331,34.007]},"properties":{"name":"Peshawar","labelRank":3}},{"type":"Feature","geometry":{"type":"Point","coordinates":[85.3147,27.7186]},"properties":{"name":"Kathmandu","labelRank":3}},{"type":"Feature","geometry":{"type":"Point","coordinates":[40.715,-14.5186]},"properties":{"name":"Nacala","labelRank":3}},{"type":"Feature","geometry":{"type":"Point","coordinates":[26.2299,-29.12]},"properties":{"name":"Bloemfontein","labelRank":3}},{"type":"Feature","geometry":{"type":"Point","coordinates":[28.2275,-25.705]},"properties":{"name":"Pretoria","labelRank":3}},{"type":"Feature","geometry":{"type":"Point","coordinates":[147.1925,-9.4647]},"properties":{"name":"Port Moresby","labelRank":3}},{"type":"Feature","geometry":{"type":"Point","coordinates":[159.9498,-9.438]},"properties":{"name":"Honiara","labelRank":3}},{"type":"Feature","geometry":{"type":"Point","coordinates":[-79.535,8.97]},"properties":{"name":"Panama City","labelRank":3}},{"type":"Feature","geometry":{"type":"Point","coordinates":[-5.0023,34.0565]},"properties":{"name":"Fez","labelRank":3}},{"type":"Feature","geometry":{"type":"Point","coordinates":[-6.8364,34.0253]},"properties":{"name":"Rabat","labelRank":3}},{"type":"Feature","geometry":{"type":"Point","coordinates":[-8.0019,31.6319]},"properties":{"name":"Marrakesh","labelRank":3}},{"type":"Feature","geometry":{"type":"Point","coordinates":[28.8577,47.005]},"properties":{"name":"Chișinău","labelRank":3}},{"type":"Feature","geometry":{"type":"Point","coordinates":[34.87,-19.82]},"properties":{"name":"Beira","labelRank":3}},{"type":"Feature","geometry":{"type":"Point","coordinates":[25.5981,-33.9681]},"properties":{"name":"Port Elizabeth","labelRank":3}},{"type":"Feature","geometry":{"type":"Point","coordinates":[32.5872,-25.9533]},"properties":{"name":"Maputo","labelRank":3}},{"type":"Feature","geometry":{"type":"Point","coordinates":[84.975,56.495]},"properties":{"name":"Tomsk","labelRank":3}},{"type":"Feature","geometry":{"type":"Point","coordinates":[177.475,64.737]},"properties":{"name":"Anadyr","labelRank":3}},{"type":"Feature","geometry":{"type":"Point","coordinates":[33.1,68.97]},"properties":{"name":"Murmansk","labelRank":3}},{"type":"Feature","geometry":{"type":"Point","coordinates":[40.545,64.575]},"properties":{"name":"Archangel","labelRank":3}},{"type":"Feature","geometry":{"type":"Point","coordinates":[43.9981,56.335]},"properties":{"name":"Nizhny Novgorod","labelRank":3}},{"type":"Feature","geometry":{"type":"Point","coordinates":[44.498,48.712]},"properties":{"name":"Volgograd","labelRank":3}},{"type":"Feature","geometry":{"type":"Point","coordinates":[56.0381,54.7919]},"properties":{"name":"Ufa","labelRank":3}},{"type":"Feature","geometry":{"type":"Point","coordinates":[60.598,56.852]},"properties":{"name":"Yekaterinburg","labelRank":3}},{"type":"Feature","geometry":{"type":"Point","coordinates":[50.1493,53.197]},"properties":{"name":"Samara","labelRank":3}},{"type":"Feature","geometry":{"type":"Point","coordinates":[49.1244,55.7519]},"properties":{"name":"Kazan","labelRank":3}},{"type":"Feature","geometry":{"type":"Point","coordinates":[73.425,61.2599]},"properties":{"name":"Surgut","labelRank":3}},{"type":"Feature","geometry":{"type":"Point","coordinates":[83.745,53.355]},"properties":{"name":"Barnaul","labelRank":3}},{"type":"Feature","geometry":{"type":"Point","coordinates":[82.9581,55.0319]},"properties":{"name":"Novosibirsk","labelRank":3}},{"type":"Feature","geometry":{"type":"Point","coordinates":[45.3647,2.0686]},"properties":{"name":"Mogadishu","labelRank":3}},{"type":"Feature","geometry":{"type":"Point","coordinates":[58.3783,23.5852]},"properties":{"name":"Muscat","labelRank":3}},{"type":"Feature","geometry":{"type":"Point","coordinates":[79.8578,6.932]},"properties":{"name":"Colombo","labelRank":3}},{"type":"Feature","geometry":{"type":"Point","coordinates":[123.8981,10.3219]},"properties":{"name":"Cebu","labelRank":3}},{"type":"Feature","geometry":{"type":"Point","coordinates":[122.545,10.705]},"properties":{"name":"Iloilo","labelRank":3}},{"type":"Feature","geometry":{"type":"Point","coordinates":[125.6281,7.112]},"properties":{"name":"Davao","labelRank":3}},{"type":"Feature","geometry":{"type":"Point","coordinates":[101.615,56.157]},"properties":{"name":"Bratsk","labelRank":3}},{"type":"Feature","geometry":{"type":"Point","coordinates":[104.2839,52.2846]},"properties":{"name":"Irkutsk","labelRank":3}},{"type":"Feature","geometry":{"type":"Point","coordinates":[92.8641,56.0159]},"properties":{"name":"Krasnoyarsk","labelRank":3}},{"type":"Feature","geometry":{"type":"Point","coordinates":[80.5451,73.507]},"properties":{"name":"Dikson","labelRank":3}},{"type":"Feature","geometry":{"type":"Point","coordinates":[113.465,52.055]},"properties":{"name":"Chita","labelRank":3}},{"type":"Feature","geometry":{"type":"Point","coordinates":[131.91,43.13]},"properties":{"name":"Vladivostok","labelRank":3}},{"type":"Feature","geometry":{"type":"Point","coordinates":[136.0666,71.4333]},"properties":{"name":"Nizhneyansk","labelRank":3}},{"type":"Feature","geometry":{"type":"Point","coordinates":[129.735,62.035]},"properties":{"name":"Yakutsk","labelRank":3}},{"type":"Feature","geometry":{"type":"Point","coordinates":[128.835,71.6269]},"properties":{"name":"Tiksi","labelRank":3}},{"type":"Feature","geometry":{"type":"Point","coordinates":[150.81,59.575]},"properties":{"name":"Magadan","labelRank":3}},{"type":"Feature","geometry":{"type":"Point","coordinates":[-117.0819,32.502]},"properties":{"name":"Tijuana","labelRank":3}},{"type":"Feature","geometry":{"type":"Point","coordinates":[-106.0869,28.6469]},"properties":{"name":"Chihuahua","labelRank":3}},{"type":"Feature","geometry":{"type":"Point","coordinates":[-106.42,23.2211]},"properties":{"name":"Mazatlán","labelRank":3}},{"type":"Feature","geometry":{"type":"Point","coordinates":[-97.87,22.3]},"properties":{"name":"Tampico","labelRank":3}},{"type":"Feature","geometry":{"type":"Point","coordinates":[-99.916,16.85]},"properties":{"name":"Acapulco","labelRank":3}},{"type":"Feature","geometry":{"type":"Point","coordinates":[-96.16,19.1773]},"properties":{"name":"Veracruz","labelRank":3}},{"type":"Feature","geometry":{"type":"Point","coordinates":[-93.15,16.75]},"properties":{"name":"Tuxtla Gutiérrez","labelRank":3}},{"type":"Feature","geometry":{"type":"Point","coordinates":[-86.83,21.17]},"properties":{"name":"Cancún","labelRank":3}},{"type":"Feature","geometry":{"type":"Point","coordinates":[-89.6186,20.9686]},"properties":{"name":"Mérida","labelRank":3}},{"type":"Feature","geometry":{"type":"Point","coordinates":[7.5,6.45]},"properties":{"name":"Enugu","labelRank":3}},{"type":"Feature","geometry":{"type":"Point","coordinates":[5.24,13.06]},"properties":{"name":"Sokoto","labelRank":3}},{"type":"Feature","geometry":{"type":"Point","coordinates":[56.248,58.0019]},"properties":{"name":"Perm","labelRank":3}},{"type":"Feature","geometry":{"type":"Point","coordinates":[104.1183,49.0533]},"properties":{"name":"Erdenet","labelRank":3}},{"type":"Feature","geometry":{"type":"Point","coordinates":[106.9147,47.9186]},"properties":{"name":"Ulaanbaatar","labelRank":3}},{"type":"Feature","geometry":{"type":"Point","coordinates":[33.43,-8.89]},"properties":{"name":"Mbeya","labelRank":3}},{"type":"Feature","geometry":{"type":"Point","coordinates":[17.0835,-22.57]},"properties":{"name":"Windhoek","labelRank":3}},{"type":"Feature","geometry":{"type":"Point","coordinates":[18.1166,-19.5666]},"properties":{"name":"Grootfontein","labelRank":3}},{"type":"Feature","geometry":{"type":"Point","coordinates":[39.2,-6.16]},"properties":{"name":"Zanzibar","labelRank":3}},{"type":"Feature","geometry":{"type":"Point","coordinates":[-0.402,39.487]},"properties":{"name":"Valencia","labelRank":3}},{"type":"Feature","geometry":{"type":"Point","coordinates":[159.95,59.084]},"properties":{"name":"Palana","labelRank":3}},{"type":"Feature","geometry":{"type":"Point","coordinates":[158.623,53.062]},"properties":{"name":"Petropavlovsk-Kamchatsky","labelRank":3}},{"type":"Feature","geometry":{"type":"Point","coordinates":[7.4895,9.0546]},"properties":{"name":"Abuja","labelRank":3}},{"type":"Feature","geometry":{"type":"Point","coordinates":[100.3581,-0.9581]},"properties":{"name":"Padang","labelRank":3}},{"type":"Feature","geometry":{"type":"Point","coordinates":[-15.5984,11.865]},"properties":{"name":"Bissau","labelRank":3}},{"type":"Feature","geometry":{"type":"Point","coordinates":[13.3481,38.127]},"properties":{"name":"Palermo","labelRank":3}},{"type":"Feature","geometry":{"type":"Point","coordinates":[35.9314,31.952]},"properties":{"name":"Amman","labelRank":3}},{"type":"Feature","geometry":{"type":"Point","coordinates":[25.3166,54.6834]},"properties":{"name":"Vilnius","labelRank":3}},{"type":"Feature","geometry":{"type":"Point","coordinates":[24.1,56.95]},"properties":{"name":"Riga","labelRank":3}},{"type":"Feature","geometry":{"type":"Point","coordinates":[74.5833,42.875]},"properties":{"name":"Bishkek","labelRank":3}},{"type":"Feature","geometry":{"type":"Point","coordinates":[98.3,39.82]},"properties":{"name":"Jiayuguan","labelRank":3}},{"type":"Feature","geometry":{"type":"Point","coordinates":[101.7681,36.6219]},"properties":{"name":"Xining","labelRank":3}},{"type":"Feature","geometry":{"type":"Point","coordinates":[110.2781,25.2819]},"properties":{"name":"Guilin","labelRank":3}},{"type":"Feature","geometry":{"type":"Point","coordinates":[116.978,32.6319]},"properties":{"name":"Huainan","labelRank":3}},{"type":"Feature","geometry":{"type":"Point","coordinates":[116.6681,23.372]},"properties":{"name":"Shantou","labelRank":3}},{"type":"Feature","geometry":{"type":"Point","coordinates":[117.633,3.3]},"properties":{"name":"Tarakan","labelRank":3}},{"type":"Feature","geometry":{"type":"Point","coordinates":[39.688,-4.0381]},"properties":{"name":"Mombasa","labelRank":3}},{"type":"Feature","geometry":{"type":"Point","coordinates":[27.4833,-29.3167]},"properties":{"name":"Maseru","labelRank":3}},{"type":"Feature","geometry":{"type":"Point","coordinates":[47.5147,-18.9147]},"properties":{"name":"Antananarivo","labelRank":3}},{"type":"Feature","geometry":{"type":"Point","coordinates":[110.4181,-6.9647]},"properties":{"name":"Semarang","labelRank":3}},{"type":"Feature","geometry":{"type":"Point","coordinates":[104.7481,-2.9781]},"properties":{"name":"Palembang","labelRank":3}},{"type":"Feature","geometry":{"type":"Point","coordinates":[114.5801,-3.33]},"properties":{"name":"Bandjarmasin","labelRank":3}},{"type":"Feature","geometry":{"type":"Point","coordinates":[119.4301,-5.138]},"properties":{"name":"Makassar","labelRank":3}},{"type":"Feature","geometry":{"type":"Point","coordinates":[4.8281,45.772]},"properties":{"name":"Lyon","labelRank":3}},{"type":"Feature","geometry":{"type":"Point","coordinates":[-78.502,-0.213]},"properties":{"name":"Quito","labelRank":3}},{"type":"Feature","geometry":{"type":"Point","coordinates":[-84.0788,9.9304]},"properties":{"name":"San José","labelRank":3}},{"type":"Feature","geometry":{"type":"Point","coordinates":[-89.2156,13.7033]},"properties":{"name":"San Salvador","labelRank":3}},{"type":"Feature","geometry":{"type":"Point","coordinates":[-76.7674,17.9771]},"properties":{"name":"Kingston","labelRank":3}},{"type":"Feature","geometry":{"type":"Point","coordinates":[-75.5163,10.4017]},"properties":{"name":"Cartagena","labelRank":3}},{"type":"Feature","geometry":{"type":"Point","coordinates":[-70.1736,1.1983]},"properties":{"name":"Mitú","labelRank":3}},{"type":"Feature","geometry":{"type":"Point","coordinates":[22.46,2.19]},"properties":{"name":"Bumba","labelRank":3}},{"type":"Feature","geometry":{"type":"Point","coordinates":[15.0472,12.115]},"properties":{"name":"N'Djamena","labelRank":3}},{"type":"Feature","geometry":{"type":"Point","coordinates":[20.83,13.84]},"properties":{"name":"Abéché","labelRank":3}},{"type":"Feature","geometry":{"type":"Point","coordinates":[8.7833,3.75]},"properties":{"name":"Malabo","labelRank":3}},{"type":"Feature","geometry":{"type":"Point","coordinates":[32.65,25.7]},"properties":{"name":"Luxor","labelRank":3}},{"type":"Feature","geometry":{"type":"Point","coordinates":[38.9333,15.3333]},"properties":{"name":"Asmara","labelRank":3}},{"type":"Feature","geometry":{"type":"Point","coordinates":[16,45.8]},"properties":{"name":"Zagreb","labelRank":3}},{"type":"Feature","geometry":{"type":"Point","coordinates":[24.728,59.4339]},"properties":{"name":"Tallinn","labelRank":3}},{"type":"Feature","geometry":{"type":"Point","coordinates":[91.1,29.645]},"properties":{"name":"Lhasa","labelRank":3}},{"type":"Feature","geometry":{"type":"Point","coordinates":[93.515,42.827]},"properties":{"name":"Hami","labelRank":3}},{"type":"Feature","geometry":{"type":"Point","coordinates":[79.9269,37.0997]},"properties":{"name":"Hotan","labelRank":3}},{"type":"Feature","geometry":{"type":"Point","coordinates":[75.9699,39.4763]},"properties":{"name":"Kashgar","labelRank":3}},{"type":"Feature","geometry":{"type":"Point","coordinates":[106.2711,38.4699]},"properties":{"name":"Yinchuan","labelRank":3}},{"type":"Feature","geometry":{"type":"Point","coordinates":[113.8481,27.622]},"properties":{"name":"Pingxiang","labelRank":3}},{"type":"Feature","geometry":{"type":"Point","coordinates":[129.885,32.765]},"properties":{"name":"Nagasaki","labelRank":3}},{"type":"Feature","geometry":{"type":"Point","coordinates":[123.988,47.3469]},"properties":{"name":"Qiqihar","labelRank":3}},{"type":"Feature","geometry":{"type":"Point","coordinates":[18.85,-5.03]},"properties":{"name":"Kikwit","labelRank":3}},{"type":"Feature","geometry":{"type":"Point","coordinates":[13.45,-5.8166]},"properties":{"name":"Matadi","labelRank":3}},{"type":"Feature","geometry":{"type":"Point","coordinates":[25.4724,-10.7167]},"properties":{"name":"Kolwezi","labelRank":3}},{"type":"Feature","geometry":{"type":"Point","coordinates":[27.4781,-11.6781]},"properties":{"name":"Lubumbashi","labelRank":3}},{"type":"Feature","geometry":{"type":"Point","coordinates":[33.7833,-13.9833]},"properties":{"name":"Lilongwe","labelRank":3}},{"type":"Feature","geometry":{"type":"Point","coordinates":[-90.5289,14.6231]},"properties":{"name":"Guatemala City","labelRank":3}},{"type":"Feature","geometry":{"type":"Point","coordinates":[-52.33,4.933]},"properties":{"name":"Cayenne","labelRank":3}},{"type":"Feature","geometry":{"type":"Point","coordinates":[9.458,0.3854]},"properties":{"name":"Libreville","labelRank":3}},{"type":"Feature","geometry":{"type":"Point","coordinates":[83.2198,17.6829]},"properties":{"name":"Vishakhapatnam","labelRank":3}},{"type":"Feature","geometry":{"type":"Point","coordinates":[178.4417,-18.133]},"properties":{"name":"Suva","labelRank":3}},{"type":"Feature","geometry":{"type":"Point","coordinates":[8.78,-0.72]},"properties":{"name":"Port-Gentil","labelRank":3}},{"type":"Feature","geometry":{"type":"Point","coordinates":[-3.0166,16.7666]},"properties":{"name":"Timbuktu","labelRank":3}},{"type":"Feature","geometry":{"type":"Point","coordinates":[-70.94,-53.165]},"properties":{"name":"Punta Arenas","labelRank":3}},{"type":"Feature","geometry":{"type":"Point","coordinates":[-70.13,-20.25]},"properties":{"name":"Iquique","labelRank":3}},{"type":"Feature","geometry":{"type":"Point","coordinates":[-70.4,-23.65]},"properties":{"name":"Antofagasta","labelRank":3}},{"type":"Feature","geometry":{"type":"Point","coordinates":[-71.617,-33.0477]},"properties":{"name":"Valparaíso","labelRank":3}},{"type":"Feature","geometry":{"type":"Point","coordinates":[-73.2331,-39.8217]},"properties":{"name":"Valdivia","labelRank":3}},{"type":"Feature","geometry":{"type":"Point","coordinates":[-73.05,-36.83]},"properties":{"name":"Concepción","labelRank":3}},{"type":"Feature","geometry":{"type":"Point","coordinates":[-72.93,-41.47]},"properties":{"name":"Puerto Montt","labelRank":3}},{"type":"Feature","geometry":{"type":"Point","coordinates":[-51.7327,64.1983]},"properties":{"name":"Nuuk","labelRank":3}},{"type":"Feature","geometry":{"type":"Point","coordinates":[-15.9753,18.0864]},"properties":{"name":"Nouakchott","labelRank":3}},{"type":"Feature","geometry":{"type":"Point","coordinates":[-8.002,12.652]},"properties":{"name":"Bamako","labelRank":3}},{"type":"Feature","geometry":{"type":"Point","coordinates":[-13.05,20.5166]},"properties":{"name":"Atar","labelRank":3}},{"type":"Feature","geometry":{"type":"Point","coordinates":[-4.55,13.9]},"properties":{"name":"Djenné","labelRank":3}},{"type":"Feature","geometry":{"type":"Point","coordinates":[14.4333,27.0333]},"properties":{"name":"Sabha","labelRank":3}},{"type":"Feature","geometry":{"type":"Point","coordinates":[20.0648,32.1187]},"properties":{"name":"Banghazi","labelRank":3}},{"type":"Feature","geometry":{"type":"Point","coordinates":[22.8831,40.6981]},"properties":{"name":"Thessaloniki","labelRank":3}},{"type":"Feature","geometry":{"type":"Point","coordinates":[35.5078,33.8739]},"properties":{"name":"Beirut","labelRank":3}},{"type":"Feature","geometry":{"type":"Point","coordinates":[44.7888,41.727]},"properties":{"name":"Tbilisi","labelRank":3}},{"type":"Feature","geometry":{"type":"Point","coordinates":[37.46,12.61]},"properties":{"name":"Gondar","labelRank":3}},{"type":"Feature","geometry":{"type":"Point","coordinates":[71.4278,51.1811]},"properties":{"name":"Nur-Sultan","labelRank":3}},{"type":"Feature","geometry":{"type":"Point","coordinates":[73.115,49.885]},"properties":{"name":"Qaraghandy","labelRank":3}},{"type":"Feature","geometry":{"type":"Point","coordinates":[76.9131,43.3269]},"properties":{"name":"Almaty","labelRank":3}},{"type":"Feature","geometry":{"type":"Point","coordinates":[51.6981,32.702]},"properties":{"name":"Isfahan","labelRank":3}},{"type":"Feature","geometry":{"type":"Point","coordinates":[52.5681,29.6319]},"properties":{"name":"Shiraz","labelRank":3}},{"type":"Feature","geometry":{"type":"Point","coordinates":[74.868,31.6419]},"properties":{"name":"Amritsar","labelRank":3}},{"type":"Feature","geometry":{"type":"Point","coordinates":[82.9981,25.3319]},"properties":{"name":"Varanasi","labelRank":3}},{"type":"Feature","geometry":{"type":"Point","coordinates":[86.9814,23.6853]},"properties":{"name":"Asansol","labelRank":3}},{"type":"Feature","geometry":{"type":"Point","coordinates":[81.3722,21.2113]},"properties":{"name":"Bhilai","labelRank":3}},{"type":"Feature","geometry":{"type":"Point","coordinates":[77.408,23.2519]},"properties":{"name":"Bhopal","labelRank":3}},{"type":"Feature","geometry":{"type":"Point","coordinates":[78.1181,9.922]},"properties":{"name":"Madurai","labelRank":3}},{"type":"Feature","geometry":{"type":"Point","coordinates":[76.9481,11.0019]},"properties":{"name":"Coimbatore","labelRank":3}},{"type":"Feature","geometry":{"type":"Point","coordinates":[102.6,17.9667]},"properties":{"name":"Vientiane","labelRank":3}},{"type":"Feature","geometry":{"type":"Point","coordinates":[15.2827,-4.2572]},"properties":{"name":"Brazzaville","labelRank":3}},{"type":"Feature","geometry":{"type":"Point","coordinates":[-13.6822,9.5335]},"properties":{"name":"Conakry","labelRank":3}},{"type":"Feature","geometry":{"type":"Point","coordinates":[-5.2755,6.8184]},"properties":{"name":"Yamoussoukro","labelRank":3}},{"type":"Feature","geometry":{"type":"Point","coordinates":[-72.67,-7.63]},"properties":{"name":"Cruzeiro do Sul","labelRank":3}},{"type":"Feature","geometry":{"type":"Point","coordinates":[-69.9553,-4.2012]},"properties":{"name":"Leticia","labelRank":3}},{"type":"Feature","geometry":{"type":"Point","coordinates":[-60.002,-3.0981]},"properties":{"name":"Manaus","labelRank":3}},{"type":"Feature","geometry":{"type":"Point","coordinates":[-43.35,-4.833]},"properties":{"name":"Caxias","labelRank":3}},{"type":"Feature","geometry":{"type":"Point","coordinates":[-54.7,-2.4333]},"properties":{"name":"Santarém","labelRank":3}},{"type":"Feature","geometry":{"type":"Point","coordinates":[-49.116,-5.35]},"properties":{"name":"Marabá","labelRank":3}},{"type":"Feature","geometry":{"type":"Point","coordinates":[-60.1166,-12.7166]},"properties":{"name":"Vilhena","labelRank":3}},{"type":"Feature","geometry":{"type":"Point","coordinates":[-61.967,-10.8333]},"properties":{"name":"Ji-Paraná","labelRank":3}},{"type":"Feature","geometry":{"type":"Point","coordinates":[-54.6186,-20.4481]},"properties":{"name":"Campo Grande","labelRank":3}},{"type":"Feature","geometry":{"type":"Point","coordinates":[-48.522,-27.578]},"properties":{"name":"Florianópolis","labelRank":3}},{"type":"Feature","geometry":{"type":"Point","coordinates":[-38.97,-12.25]},"properties":{"name":"Feira de Santana","labelRank":3}},{"type":"Feature","geometry":{"type":"Point","coordinates":[-97.166,49.883]},"properties":{"name":"Winnipeg","labelRank":3}},{"type":"Feature","geometry":{"type":"Point","coordinates":[-94.166,58.766]},"properties":{"name":"Churchill","labelRank":3}},{"type":"Feature","geometry":{"type":"Point","coordinates":[-104.617,50.45]},"properties":{"name":"Regina","labelRank":3}},{"type":"Feature","geometry":{"type":"Point","coordinates":[-106.67,52.17]},"properties":{"name":"Saskatoon","labelRank":3}},{"type":"Feature","geometry":{"type":"Point","coordinates":[-114.0819,51.0849]},"properties":{"name":"Calgary","labelRank":3}},{"type":"Feature","geometry":{"type":"Point","coordinates":[-130.33,54.3167]},"properties":{"name":"Prince Rupert","labelRank":3}},{"type":"Feature","geometry":{"type":"Point","coordinates":[-123.35,48.4333]},"properties":{"name":"Victoria","labelRank":3}},{"type":"Feature","geometry":{"type":"Point","coordinates":[-85.1666,73.0333]},"properties":{"name":"Arctic Bay","labelRank":3}},{"type":"Feature","geometry":{"type":"Point","coordinates":[-94.9,74.6833]},"properties":{"name":"Resolute","labelRank":3}},{"type":"Feature","geometry":{"type":"Point","coordinates":[-86.2829,66.5295]},"properties":{"name":"Naujaat","labelRank":3}},{"type":"Feature","geometry":{"type":"Point","coordinates":[-114.397,62.442]},"properties":{"name":"Yellowknife","labelRank":3}},{"type":"Feature","geometry":{"type":"Point","coordinates":[-128.6333,66.2666]},"properties":{"name":"Fort Good Hope","labelRank":3}},{"type":"Feature","geometry":{"type":"Point","coordinates":[-135.05,60.7167]},"properties":{"name":"Whitehorse","labelRank":3}},{"type":"Feature","geometry":{"type":"Point","coordinates":[-60.666,2.8161]},"properties":{"name":"Boa Vista","labelRank":3}},{"type":"Feature","geometry":{"type":"Point","coordinates":[-51.05,0.033]},"properties":{"name":"Macapá","labelRank":3}},{"type":"Feature","geometry":{"type":"Point","coordinates":[-75.702,45.4186]},"properties":{"name":"Ottawa","labelRank":3}},{"type":"Feature","geometry":{"type":"Point","coordinates":[-87.65,55.9833]},"properties":{"name":"Fort Severn","labelRank":3}},{"type":"Feature","geometry":{"type":"Point","coordinates":[-89.275,48.4462]},"properties":{"name":"Thunder Bay","labelRank":3}},{"type":"Feature","geometry":{"type":"Point","coordinates":[-71.2456,46.84]},"properties":{"name":"Québec","labelRank":3}},{"type":"Feature","geometry":{"type":"Point","coordinates":[-63.6,44.65]},"properties":{"name":"Halifax","labelRank":3}},{"type":"Feature","geometry":{"type":"Point","coordinates":[-52.681,47.585]},"properties":{"name":"St. John's","labelRank":3}},{"type":"Feature","geometry":{"type":"Point","coordinates":[-61.686,56.5474]},"properties":{"name":"Nain","labelRank":3}},{"type":"Feature","geometry":{"type":"Point","coordinates":[-63.1313,46.2493]},"properties":{"name":"Charlottetown","labelRank":3}},{"type":"Feature","geometry":{"type":"Point","coordinates":[20.653,8.4091]},"properties":{"name":"N'Délé","labelRank":3}},{"type":"Feature","geometry":{"type":"Point","coordinates":[20.466,44.8206]},"properties":{"name":"Belgrade","labelRank":3}},{"type":"Feature","geometry":{"type":"Point","coordinates":[26.5,5.4]},"properties":{"name":"Obo","labelRank":3}},{"type":"Feature","geometry":{"type":"Point","coordinates":[114.9333,4.8833]},"properties":{"name":"Bandar Seri Begawan","labelRank":3}},{"type":"Feature","geometry":{"type":"Point","coordinates":[-65.9,-47.75]},"properties":{"name":"Puerto Deseado","labelRank":3}},{"type":"Feature","geometry":{"type":"Point","coordinates":[-69.2166,-51.6333]},"properties":{"name":"Río Gallegos","labelRank":3}},{"type":"Feature","geometry":{"type":"Point","coordinates":[-67.5,-45.87]},"properties":{"name":"Comodoro Rivadavia","labelRank":3}},{"type":"Feature","geometry":{"type":"Point","coordinates":[-68.8186,-32.8814]},"properties":{"name":"Mendoza","labelRank":3}},{"type":"Feature","geometry":{"type":"Point","coordinates":[-65.2595,-19.041]},"properties":{"name":"Sucre","labelRank":3}},{"type":"Feature","geometry":{"type":"Point","coordinates":[-66.1,-10.983]},"properties":{"name":"Riberalta","labelRank":3}},{"type":"Feature","geometry":{"type":"Point","coordinates":[-62.265,-38.74]},"properties":{"name":"Bahía Blanca","labelRank":3}},{"type":"Feature","geometry":{"type":"Point","coordinates":[-57.58,-38]},"properties":{"name":"Mar del Plata","labelRank":3}},{"type":"Feature","geometry":{"type":"Point","coordinates":[-64.1842,-31.398]},"properties":{"name":"Córdoba","labelRank":3}},{"type":"Feature","geometry":{"type":"Point","coordinates":[-55.8851,-27.3578]},"properties":{"name":"Posadas","labelRank":3}},{"type":"Feature","geometry":{"type":"Point","coordinates":[-88.7671,17.252]},"properties":{"name":"Belmopan","labelRank":3}},{"type":"Feature","geometry":{"type":"Point","coordinates":[18.5583,4.3666]},"properties":{"name":"Bangui","labelRank":3}},{"type":"Feature","geometry":{"type":"Point","coordinates":[14.3247,10.5956]},"properties":{"name":"Maroua","labelRank":3}},{"type":"Feature","geometry":{"type":"Point","coordinates":[11.5147,3.8686]},"properties":{"name":"Yaoundé","labelRank":3}},{"type":"Feature","geometry":{"type":"Point","coordinates":[19.8189,41.3275]},"properties":{"name":"Tirana","labelRank":3}},{"type":"Feature","geometry":{"type":"Point","coordinates":[44.5116,40.1831]},"properties":{"name":"Yerevan","labelRank":3}},{"type":"Feature","geometry":{"type":"Point","coordinates":[49.8603,40.3972]},"properties":{"name":"Baku","labelRank":3}},{"type":"Feature","geometry":{"type":"Point","coordinates":[65.6949,31.61]},"properties":{"name":"Kandahar","labelRank":3}},{"type":"Feature","geometry":{"type":"Point","coordinates":[104.9147,11.552]},"properties":{"name":"Phnom Penh","labelRank":3}},{"type":"Feature","geometry":{"type":"Point","coordinates":[17.7,-14.6666]},"properties":{"name":"Menongue","labelRank":3}},{"type":"Feature","geometry":{"type":"Point","coordinates":[15.7581,-12.748]},"properties":{"name":"Huambo","labelRank":3}},{"type":"Feature","geometry":{"type":"Point","coordinates":[-68.1519,-16.496]},"properties":{"name":"La Paz","labelRank":3}},{"type":"Feature","geometry":{"type":"Point","coordinates":[-63.2279,-17.752]},"properties":{"name":"Santa Cruz","labelRank":3}},{"type":"Feature","geometry":{"type":"Point","coordinates":[-0.6219,35.7119]},"properties":{"name":"Oran","labelRank":3}},{"type":"Feature","geometry":{"type":"Point","coordinates":[2.4044,6.363]},"properties":{"name":"Cotonou","labelRank":3}},{"type":"Feature","geometry":{"type":"Point","coordinates":[5.5228,22.785]},"properties":{"name":"Tamanrasset","labelRank":3}},{"type":"Feature","geometry":{"type":"Point","coordinates":[3.67,32.49]},"properties":{"name":"Ghardaia","labelRank":3}},{"type":"Feature","geometry":{"type":"Point","coordinates":[23.3147,42.6853]},"properties":{"name":"Sofia","labelRank":3}},{"type":"Feature","geometry":{"type":"Point","coordinates":[27.5647,53.9019]},"properties":{"name":"Minsk","labelRank":3}},{"type":"Feature","geometry":{"type":"Point","coordinates":[89.639,27.473]},"properties":{"name":"Thimphu","labelRank":3}},{"type":"Feature","geometry":{"type":"Point","coordinates":[25.9119,-24.6463]},"properties":{"name":"Gaborone","labelRank":3}},{"type":"Feature","geometry":{"type":"Point","coordinates":[130.85,-12.4254]},"properties":{"name":"Darwin","labelRank":3}},{"type":"Feature","geometry":{"type":"Point","coordinates":[133.88,-23.701]},"properties":{"name":"Alice Springs","labelRank":3}},{"type":"Feature","geometry":{"type":"Point","coordinates":[149.129,-35.283]},"properties":{"name":"Canberra","labelRank":3}},{"type":"Feature","geometry":{"type":"Point","coordinates":[151.7702,-32.9295]},"properties":{"name":"Newcastle","labelRank":3}},{"type":"Feature","geometry":{"type":"Point","coordinates":[138.5981,-34.933]},"properties":{"name":"Adelaide","labelRank":3}},{"type":"Feature","geometry":{"type":"Point","coordinates":[146.77,-19.2499]},"properties":{"name":"Townsville","labelRank":3}},{"type":"Feature","geometry":{"type":"Point","coordinates":[153.0331,-27.4531]},"properties":{"name":"Brisbane","labelRank":3}},{"type":"Feature","geometry":{"type":"Point","coordinates":[147.295,-42.85]},"properties":{"name":"Hobart","labelRank":3}},{"type":"Feature","geometry":{"type":"Point","coordinates":[-1.5267,12.3723]},"properties":{"name":"Ouagadougou","labelRank":3}},{"type":"Feature","geometry":{"type":"Point","coordinates":[18.383,43.85]},"properties":{"name":"Sarajevo","labelRank":3}},{"type":"Feature","geometry":{"type":"Point","coordinates":[96.1167,19.7685]},"properties":{"name":"Naypyidaw","labelRank":3}},{"type":"Feature","geometry":{"type":"Point","coordinates":[-66.13,18.44]},"properties":{"name":"San Juan","labelRank":3}},{"type":"Feature","geometry":{"type":"Point","coordinates":[-57.85,-51.7]},"properties":{"name":"Stanley","labelRank":3}},{"type":"Feature","geometry":{"type":"Point","coordinates":[-64.7839,32.2942]},"properties":{"name":"Hamilton","labelRank":3}},{"type":"Feature","geometry":{"type":"Point","coordinates":[-175.2206,-21.1385]},"properties":{"name":"Nuku'alofa","labelRank":3}},{"type":"Feature","geometry":{"type":"Point","coordinates":[44.0653,9.56]},"properties":{"name":"Hargeisa","labelRank":3}},{"type":"Feature","geometry":{"type":"Point","coordinates":[55.45,-4.6166]},"properties":{"name":"Victoria","labelRank":3}},{"type":"Feature","geometry":{"type":"Point","coordinates":[6.7297,0.3375]},"properties":{"name":"São Tomé","labelRank":3}},{"type":"Feature","geometry":{"type":"Point","coordinates":[-171.7686,-13.8357]},"properties":{"name":"Apia","labelRank":3}},{"type":"Feature","geometry":{"type":"Point","coordinates":[14.5147,35.8997]},"properties":{"name":"Valletta","labelRank":3}},{"type":"Feature","geometry":{"type":"Point","coordinates":[73.5089,4.172]},"properties":{"name":"Malé","labelRank":3}},{"type":"Feature","geometry":{"type":"Point","coordinates":[35.2066,31.7784]},"properties":{"name":"Jerusalem","labelRank":3}},{"type":"Feature","geometry":{"type":"Point","coordinates":[-23.5167,14.9167]},"properties":{"name":"Praia","labelRank":3}},{"type":"Feature","geometry":{"type":"Point","coordinates":[-77.35,25.0834]},"properties":{"name":"Nassau","labelRank":3}},{"type":"Feature","geometry":{"type":"Point","coordinates":[33.3666,35.1667]},"properties":{"name":"Nicosia","labelRank":3}},{"type":"Feature","geometry":{"type":"Point","coordinates":[120.2666,22.6333]},"properties":{"name":"Kaohsiung","labelRank":3}},{"type":"Feature","geometry":{"type":"Point","coordinates":[174.7772,-41.2921]},"properties":{"name":"Wellington","labelRank":3}},{"type":"Feature","geometry":{"type":"Point","coordinates":[172.63,-43.535]},"properties":{"name":"Christchurch","labelRank":3}},{"type":"Feature","geometry":{"type":"Point","coordinates":[114.0612,22.5481]},"properties":{"name":"Shenzhen","labelRank":2}},{"type":"Feature","geometry":{"type":"Point","coordinates":[117.9965,36.8214]},"properties":{"name":"Zibo","labelRank":2}},{"type":"Feature","geometry":{"type":"Point","coordinates":[-93.2537,44.9819]},"properties":{"name":"Minneapolis","labelRank":2}},{"type":"Feature","geometry":{"type":"Point","coordinates":[-157.8583,21.3034]},"properties":{"name":"Honolulu","labelRank":2}},{"type":"Feature","geometry":{"type":"Point","coordinates":[-122.3153,47.6004]},"properties":{"name":"Seattle","labelRank":2}},{"type":"Feature","geometry":{"type":"Point","coordinates":[-112.0674,33.4483]},"properties":{"name":"Phoenix","labelRank":2}},{"type":"Feature","geometry":{"type":"Point","coordinates":[-117.1509,32.7189]},"properties":{"name":"San Diego","labelRank":2}},{"type":"Feature","geometry":{"type":"Point","coordinates":[-90.2419,38.637]},"properties":{"name":"St. Louis","labelRank":2}},{"type":"Feature","geometry":{"type":"Point","coordinates":[-90.0884,29.9689]},"properties":{"name":"New Orleans","labelRank":2}},{"type":"Feature","geometry":{"type":"Point","coordinates":[-96.7947,32.772]},"properties":{"name":"Dallas","labelRank":2}},{"type":"Feature","geometry":{"type":"Point","coordinates":[-71.6619,10.7319]},"properties":{"name":"Maracaibo","labelRank":2}},{"type":"Feature","geometry":{"type":"Point","coordinates":[-71.072,42.3319]},"properties":{"name":"Boston","labelRank":2}},{"type":"Feature","geometry":{"type":"Point","coordinates":[-82.4606,27.9489]},"properties":{"name":"Tampa","labelRank":2}},{"type":"Feature","geometry":{"type":"Point","coordinates":[-75.1798,39.9459]},"properties":{"name":"Philadelphia","labelRank":2}},{"type":"Feature","geometry":{"type":"Point","coordinates":[-83.0513,42.3336]},"properties":{"name":"Detroit","labelRank":2}},{"type":"Feature","geometry":{"type":"Point","coordinates":[-149.8874,61.214]},"properties":{"name":"Anchorage","labelRank":2}},{"type":"Feature","geometry":{"type":"Point","coordinates":[105.8481,21.0353]},"properties":{"name":"Hanoi","labelRank":2}},{"type":"Feature","geometry":{"type":"Point","coordinates":[106.703,10.7621]},"properties":{"name":"Ho Chi Minh City","labelRank":2}},{"type":"Feature","geometry":{"type":"Point","coordinates":[32.8624,39.9292]},"properties":{"name":"Ankara","labelRank":2}},{"type":"Feature","geometry":{"type":"Point","coordinates":[19.0814,47.502]},"properties":{"name":"Budapest","labelRank":2}},{"type":"Feature","geometry":{"type":"Point","coordinates":[44.2046,15.3567]},"properties":{"name":"Sanaa","labelRank":2}},{"type":"Feature","geometry":{"type":"Point","coordinates":[2.1814,41.3852]},"properties":{"name":"Barcelona","labelRank":2}},{"type":"Feature","geometry":{"type":"Point","coordinates":[26.098,44.4353]},"properties":{"name":"Bucharest","labelRank":2}},{"type":"Feature","geometry":{"type":"Point","coordinates":[37.1681,36.2319]},"properties":{"name":"Aleppo","labelRank":2}},{"type":"Feature","geometry":{"type":"Point","coordinates":[36.2981,33.502]},"properties":{"name":"Damascus","labelRank":2}},{"type":"Feature","geometry":{"type":"Point","coordinates":[8.5481,47.3819]},"properties":{"name":"Zürich","labelRank":2}},{"type":"Feature","geometry":{"type":"Point","coordinates":[-9.1468,38.7247]},"properties":{"name":"Lisbon","labelRank":2}},{"type":"Feature","geometry":{"type":"Point","coordinates":[32.5322,15.59]},"properties":{"name":"Khartoum","labelRank":2}},{"type":"Feature","geometry":{"type":"Point","coordinates":[39.2173,21.5188]},"properties":{"name":"Jeddah","labelRank":2}},{"type":"Feature","geometry":{"type":"Point","coordinates":[39.8181,21.432]},"properties":{"name":"Makkah","labelRank":2}},{"type":"Feature","geometry":{"type":"Point","coordinates":[10.748,59.9186]},"properties":{"name":"Oslo","labelRank":2}},{"type":"Feature","geometry":{"type":"Point","coordinates":[74.3481,31.5619]},"properties":{"name":"Lahore","labelRank":2}},{"type":"Feature","geometry":{"type":"Point","coordinates":[66.9881,24.8719]},"properties":{"name":"Karachi","labelRank":2}},{"type":"Feature","geometry":{"type":"Point","coordinates":[31.0109,-29.8607]},"properties":{"name":"Durban","labelRank":2}},{"type":"Feature","geometry":{"type":"Point","coordinates":[30.3141,59.941]},"properties":{"name":"St.  Petersburg","labelRank":2}},{"type":"Feature","geometry":{"type":"Point","coordinates":[-103.332,20.672]},"properties":{"name":"Guadalajara","labelRank":2}},{"type":"Feature","geometry":{"type":"Point","coordinates":[-98.2037,19.0326]},"properties":{"name":"Puebla","labelRank":2}},{"type":"Feature","geometry":{"type":"Point","coordinates":[8.5181,12.0019]},"properties":{"name":"Kano","labelRank":2}},{"type":"Feature","geometry":{"type":"Point","coordinates":[21.0053,52.2309]},"properties":{"name":"Warsaw","labelRank":2}},{"type":"Feature","geometry":{"type":"Point","coordinates":[125.7527,39.0214]},"properties":{"name":"Pyongyang","labelRank":2}},{"type":"Feature","geometry":{"type":"Point","coordinates":[39.2664,-6.7981]},"properties":{"name":"Dar es Salaam","labelRank":2}},{"type":"Feature","geometry":{"type":"Point","coordinates":[98.6481,3.5819]},"properties":{"name":"Medan","labelRank":2}},{"type":"Feature","geometry":{"type":"Point","coordinates":[-6.257,53.3467]},"properties":{"name":"Dublin","labelRank":2}},{"type":"Feature","geometry":{"type":"Point","coordinates":[-10.7997,6.3146]},"properties":{"name":"Monrovia","labelRank":2}},{"type":"Feature","geometry":{"type":"Point","coordinates":[14.2431,40.842]},"properties":{"name":"Naples","labelRank":2}},{"type":"Feature","geometry":{"type":"Point","coordinates":[9.2031,45.4719]},"properties":{"name":"Milan","labelRank":2}},{"type":"Feature","geometry":{"type":"Point","coordinates":[101.6887,3.1398]},"properties":{"name":"Kuala Lumpur","labelRank":2}},{"type":"Feature","geometry":{"type":"Point","coordinates":[103.7901,36.058]},"properties":{"name":"Lanzhou","labelRank":2}},{"type":"Feature","geometry":{"type":"Point","coordinates":[108.3181,22.8219]},"properties":{"name":"Nanning","labelRank":2}},{"type":"Feature","geometry":{"type":"Point","coordinates":[106.7181,26.582]},"properties":{"name":"Guiyang","labelRank":2}},{"type":"Feature","geometry":{"type":"Point","coordinates":[106.593,29.5669]},"properties":{"name":"Chongqing","labelRank":2}},{"type":"Feature","geometry":{"type":"Point","coordinates":[119.2981,26.0819]},"properties":{"name":"Fuzhou","labelRank":2}},{"type":"Feature","geometry":{"type":"Point","coordinates":[113.2618,23.1247]},"properties":{"name":"Guangzhou","labelRank":2}},{"type":"Feature","geometry":{"type":"Point","coordinates":[113.7505,23.0215]},"properties":{"name":"Dongguan","labelRank":2}},{"type":"Feature","geometry":{"type":"Point","coordinates":[107.5681,-6.9481]},"properties":{"name":"Bandung","labelRank":2}},{"type":"Feature","geometry":{"type":"Point","coordinates":[112.7489,-7.2473]},"properties":{"name":"Surabaya","labelRank":2}},{"type":"Feature","geometry":{"type":"Point","coordinates":[-79.922,-2.2181]},"properties":{"name":"Guayaquil","labelRank":2}},{"type":"Feature","geometry":{"type":"Point","coordinates":[-75.577,6.2769]},"properties":{"name":"Medellín","labelRank":2}},{"type":"Feature","geometry":{"type":"Point","coordinates":[-76.5019,3.4019]},"properties":{"name":"Cali","labelRank":2}},{"type":"Feature","geometry":{"type":"Point","coordinates":[-82.3661,23.1339]},"properties":{"name":"Havana","labelRank":2}},{"type":"Feature","geometry":{"type":"Point","coordinates":[29.9481,31.202]},"properties":{"name":"Alexandria","labelRank":2}},{"type":"Feature","geometry":{"type":"Point","coordinates":[8.675,50.1]},"properties":{"name":"Frankfurt","labelRank":2}},{"type":"Feature","geometry":{"type":"Point","coordinates":[9.9981,53.552]},"properties":{"name":"Hamburg","labelRank":2}},{"type":"Feature","geometry":{"type":"Point","coordinates":[11.573,48.1319]},"properties":{"name":"Munich","labelRank":2}},{"type":"Feature","geometry":{"type":"Point","coordinates":[14.4229,50.087]},"properties":{"name":"Prague","labelRank":2}},{"type":"Feature","geometry":{"type":"Point","coordinates":[47.9764,29.3717]},"properties":{"name":"Kuwait City","labelRank":2}},{"type":"Feature","geometry":{"type":"Point","coordinates":[108.8931,34.277]},"properties":{"name":"Xian","labelRank":2}},{"type":"Feature","geometry":{"type":"Point","coordinates":[112.5431,37.877]},"properties":{"name":"Taiyuan","labelRank":2}},{"type":"Feature","geometry":{"type":"Point","coordinates":[114.2681,30.582]},"properties":{"name":"Wuhan","labelRank":2}},{"type":"Feature","geometry":{"type":"Point","coordinates":[112.968,28.2019]},"properties":{"name":"Changsha","labelRank":2}},{"type":"Feature","geometry":{"type":"Point","coordinates":[102.6974,25.0429]},"properties":{"name":"Kunming","labelRank":2}},{"type":"Feature","geometry":{"type":"Point","coordinates":[113.6631,34.7569]},"properties":{"name":"Zhengzhou","labelRank":2}},{"type":"Feature","geometry":{"type":"Point","coordinates":[123.448,41.8069]},"properties":{"name":"Shenyeng","labelRank":2}},{"type":"Feature","geometry":{"type":"Point","coordinates":[116.9931,36.6769]},"properties":{"name":"Jinan","labelRank":2}},{"type":"Feature","geometry":{"type":"Point","coordinates":[117.1966,39.0828]},"properties":{"name":"Tianjin","labelRank":2}},{"type":"Feature","geometry":{"type":"Point","coordinates":[115.8781,28.6819]},"properties":{"name":"Nanchang","labelRank":2}},{"type":"Feature","geometry":{"type":"Point","coordinates":[118.778,32.052]},"properties":{"name":"Nanjing","labelRank":2}},{"type":"Feature","geometry":{"type":"Point","coordinates":[120.1681,30.2519]},"properties":{"name":"Hangzhou","labelRank":2}},{"type":"Feature","geometry":{"type":"Point","coordinates":[132.441,34.3898]},"properties":{"name":"Hiroshima","labelRank":2}},{"type":"Feature","geometry":{"type":"Point","coordinates":[125.338,43.867]},"properties":{"name":"Changchun","labelRank":2}},{"type":"Feature","geometry":{"type":"Point","coordinates":[109.8201,40.6542]},"properties":{"name":"Baotou","labelRank":2}},{"type":"Feature","geometry":{"type":"Point","coordinates":[126.648,45.7519]},"properties":{"name":"Harbin","labelRank":2}},{"type":"Feature","geometry":{"type":"Point","coordinates":[141.3381,43.0769]},"properties":{"name":"Sapporo","labelRank":2}},{"type":"Feature","geometry":{"type":"Point","coordinates":[-69.9297,18.4707]},"properties":{"name":"Santo Domingo","labelRank":2}},{"type":"Feature","geometry":{"type":"Point","coordinates":[-0.2187,5.552]},"properties":{"name":"Accra","labelRank":2}},{"type":"Feature","geometry":{"type":"Point","coordinates":[77.2281,28.6719]},"properties":{"name":"Delhi","labelRank":2}},{"type":"Feature","geometry":{"type":"Point","coordinates":[78.478,17.4019]},"properties":{"name":"Hyderabad","labelRank":2}},{"type":"Feature","geometry":{"type":"Point","coordinates":[73.8519,18.5164]},"properties":{"name":"Pune","labelRank":2}},{"type":"Feature","geometry":{"type":"Point","coordinates":[79.088,21.1719]},"properties":{"name":"Nagpur","labelRank":2}},{"type":"Feature","geometry":{"type":"Point","coordinates":[13.18,32.8925]},"properties":{"name":"Tripoli","labelRank":2}},{"type":"Feature","geometry":{"type":"Point","coordinates":[34.7681,32.0819]},"properties":{"name":"Tel Aviv","labelRank":2}},{"type":"Feature","geometry":{"type":"Point","coordinates":[24.9325,60.1638]},"properties":{"name":"Helsinki","labelRank":2}},{"type":"Feature","geometry":{"type":"Point","coordinates":[59.5681,36.272]},"properties":{"name":"Mashhad","labelRank":2}},{"type":"Feature","geometry":{"type":"Point","coordinates":[75.808,26.9231]},"properties":{"name":"Jaipur","labelRank":2}},{"type":"Feature","geometry":{"type":"Point","coordinates":[80.3181,26.4619]},"properties":{"name":"Kanpur","labelRank":2}},{"type":"Feature","geometry":{"type":"Point","coordinates":[85.1281,25.6269]},"properties":{"name":"Patna","labelRank":2}},{"type":"Feature","geometry":{"type":"Point","coordinates":[80.2781,13.0919]},"properties":{"name":"Chennai","labelRank":2}},{"type":"Feature","geometry":{"type":"Point","coordinates":[72.5781,23.032]},"properties":{"name":"Ahmedabad","labelRank":2}},{"type":"Feature","geometry":{"type":"Point","coordinates":[72.8381,21.2019]},"properties":{"name":"Surat","labelRank":2}},{"type":"Feature","geometry":{"type":"Point","coordinates":[12.5615,55.6805]},"properties":{"name":"København","labelRank":2}},{"type":"Feature","geometry":{"type":"Point","coordinates":[-4.0202,5.3231]},"properties":{"name":"Abidjan","labelRank":2}},{"type":"Feature","geometry":{"type":"Point","coordinates":[-48.482,-1.4481]},"properties":{"name":"Belém","labelRank":2}},{"type":"Feature","geometry":{"type":"Point","coordinates":[-47.918,-15.7814]},"properties":{"name":"Brasília","labelRank":2}},{"type":"Feature","geometry":{"type":"Point","coordinates":[-51.202,-30.0481]},"properties":{"name":"Porto Alegre","labelRank":2}},{"type":"Feature","geometry":{"type":"Point","coordinates":[-49.3219,-25.4181]},"properties":{"name":"Curitiba","labelRank":2}},{"type":"Feature","geometry":{"type":"Point","coordinates":[-38.5819,-3.7481]},"properties":{"name":"Fortaleza","labelRank":2}},{"type":"Feature","geometry":{"type":"Point","coordinates":[-38.4819,-12.968]},"properties":{"name":"Salvador","labelRank":2}},{"type":"Feature","geometry":{"type":"Point","coordinates":[-113.5019,53.552]},"properties":{"name":"Edmonton","labelRank":2}},{"type":"Feature","geometry":{"type":"Point","coordinates":[-73.5852,45.5019]},"properties":{"name":"Montréal","labelRank":2}},{"type":"Feature","geometry":{"type":"Point","coordinates":[-49.302,-16.7181]},"properties":{"name":"Goiânia","labelRank":2}},{"type":"Feature","geometry":{"type":"Point","coordinates":[-34.9088,-8.0605]},"properties":{"name":"Recife","labelRank":2}},{"type":"Feature","geometry":{"type":"Point","coordinates":[4.3314,50.8353]},"properties":{"name":"Brussels","labelRank":2}},{"type":"Feature","geometry":{"type":"Point","coordinates":[90.4066,23.725]},"properties":{"name":"Dhaka","labelRank":2}},{"type":"Feature","geometry":{"type":"Point","coordinates":[13.2325,-8.8363]},"properties":{"name":"Luanda","labelRank":2}},{"type":"Feature","geometry":{"type":"Point","coordinates":[3.0486,36.765]},"properties":{"name":"Algiers","labelRank":2}},{"type":"Feature","geometry":{"type":"Point","coordinates":[91.798,22.3319]},"properties":{"name":"Chattogram","labelRank":2}},{"type":"Feature","geometry":{"type":"Point","coordinates":[115.8381,-31.9531]},"properties":{"name":"Perth","labelRank":2}},{"type":"Feature","geometry":{"type":"Point","coordinates":[96.1647,16.7853]},"properties":{"name":"Yangon","labelRank":2}},{"type":"Feature","geometry":{"type":"Point","coordinates":[-122.3996,37.7843]},"properties":{"name":"San Francisco","labelRank":1}},{"type":"Feature","geometry":{"type":"Point","coordinates":[-104.986,39.7411]},"properties":{"name":"Denver","labelRank":1}},{"type":"Feature","geometry":{"type":"Point","coordinates":[-95.3484,29.7413]},"properties":{"name":"Houston","labelRank":1}},{"type":"Feature","geometry":{"type":"Point","coordinates":[-80.2261,25.7896]},"properties":{"name":"Miami","labelRank":1}},{"type":"Feature","geometry":{"type":"Point","coordinates":[-84.3676,33.7395]},"properties":{"name":"Atlanta","labelRank":1}},{"type":"Feature","geometry":{"type":"Point","coordinates":[-87.6352,41.848]},"properties":{"name":"Chicago","labelRank":1}},{"type":"Feature","geometry":{"type":"Point","coordinates":[-66.919,10.5029]},"properties":{"name":"Caracas","labelRank":1}},{"type":"Feature","geometry":{"type":"Point","coordinates":[30.5147,50.4353]},"properties":{"name":"Kyiv","labelRank":1}},{"type":"Feature","geometry":{"type":"Point","coordinates":[55.2869,25.2149]},"properties":{"name":"Dubai","labelRank":1}},{"type":"Feature","geometry":{"type":"Point","coordinates":[69.2688,41.3038]},"properties":{"name":"Tashkent","labelRank":1}},{"type":"Feature","geometry":{"type":"Point","coordinates":[-3.6853,40.402]},"properties":{"name":"Madrid","labelRank":1}},{"type":"Feature","geometry":{"type":"Point","coordinates":[6.14,46.21]},"properties":{"name":"Geneva","labelRank":1}},{"type":"Feature","geometry":{"type":"Point","coordinates":[18.0663,59.3241]},"properties":{"name":"Stockholm","labelRank":1}},{"type":"Feature","geometry":{"type":"Point","coordinates":[100.5147,13.7519]},"properties":{"name":"Bangkok","labelRank":1}},{"type":"Feature","geometry":{"type":"Point","coordinates":[-77.052,-12.0461]},"properties":{"name":"Lima","labelRank":1}},{"type":"Feature","geometry":{"type":"Point","coordinates":[-17.4751,14.7178]},"properties":{"name":"Dakar","labelRank":1}},{"type":"Feature","geometry":{"type":"Point","coordinates":[28.0281,-26.1681]},"properties":{"name":"Johannesburg","labelRank":1}},{"type":"Feature","geometry":{"type":"Point","coordinates":[4.9147,52.3519]},"properties":{"name":"Amsterdam","labelRank":1}},{"type":"Feature","geometry":{"type":"Point","coordinates":[-7.6183,33.6019]},"properties":{"name":"Casablanca","labelRank":1}},{"type":"Feature","geometry":{"type":"Point","coordinates":[126.9978,37.5683]},"properties":{"name":"Seoul","labelRank":1}},{"type":"Feature","geometry":{"type":"Point","coordinates":[120.9803,14.6061]},"properties":{"name":"Manila","labelRank":1}},{"type":"Feature","geometry":{"type":"Point","coordinates":[-100.3319,25.6719]},"properties":{"name":"Monterrey","labelRank":1}},{"type":"Feature","geometry":{"type":"Point","coordinates":[13.3996,52.5238]},"properties":{"name":"Berlin","labelRank":1}},{"type":"Feature","geometry":{"type":"Point","coordinates":[87.5731,43.807]},"properties":{"name":"Ürümqi","labelRank":1}},{"type":"Feature","geometry":{"type":"Point","coordinates":[104.0681,30.6719]},"properties":{"name":"Chengdu","labelRank":1}},{"type":"Feature","geometry":{"type":"Point","coordinates":[135.5038,34.6911]},"properties":{"name":"Ōsaka","labelRank":1}},{"type":"Feature","geometry":{"type":"Point","coordinates":[15.313,-4.3278]},"properties":{"name":"Kinshasa","labelRank":1}},{"type":"Feature","geometry":{"type":"Point","coordinates":[77.2,28.6]},"properties":{"name":"New Delhi","labelRank":1}},{"type":"Feature","geometry":{"type":"Point","coordinates":[77.5581,12.9719]},"properties":{"name":"Bengaluru","labelRank":1}},{"type":"Feature","geometry":{"type":"Point","coordinates":[23.7314,37.9853]},"properties":{"name":"Athens","labelRank":1}},{"type":"Feature","geometry":{"type":"Point","coordinates":[44.3919,33.3406]},"properties":{"name":"Baghdad","labelRank":1}},{"type":"Feature","geometry":{"type":"Point","coordinates":[38.6981,9.0353]},"properties":{"name":"Addis Ababa","labelRank":1}},{"type":"Feature","geometry":{"type":"Point","coordinates":[51.4224,35.6739]},"properties":{"name":"Tehran","labelRank":1}},{"type":"Feature","geometry":{"type":"Point","coordinates":[-123.1236,49.2754]},"properties":{"name":"Vancouver","labelRank":1}},{"type":"Feature","geometry":{"type":"Point","coordinates":[-79.3895,43.6646]},"properties":{"name":"Toronto","labelRank":1}},{"type":"Feature","geometry":{"type":"Point","coordinates":[-58.4325,-34.6107]},"properties":{"name":"Buenos Aires","labelRank":1}},{"type":"Feature","geometry":{"type":"Point","coordinates":[69.1813,34.5186]},"properties":{"name":"Kabul","labelRank":1}},{"type":"Feature","geometry":{"type":"Point","coordinates":[16.3647,48.202]},"properties":{"name":"Vienna","labelRank":1}},{"type":"Feature","geometry":{"type":"Point","coordinates":[144.9731,-37.8181]},"properties":{"name":"Melbourne","labelRank":1}},{"type":"Feature","geometry":{"type":"Point","coordinates":[121.5683,25.0358]},"properties":{"name":"Taipei","labelRank":1}},{"type":"Feature","geometry":{"type":"Point","coordinates":[174.763,-36.8481]},"properties":{"name":"Auckland","labelRank":1}},{"type":"Feature","geometry":{"type":"Point","coordinates":[-118.232,34.0492]},"properties":{"name":"Los Angeles","labelRank":0}},{"type":"Feature","geometry":{"type":"Point","coordinates":[-77.0114,38.9015]},"properties":{"name":"Washington,  D.C.","labelRank":0}},{"type":"Feature","geometry":{"type":"Point","coordinates":[-73.9957,40.7216]},"properties":{"name":"New York","labelRank":0}},{"type":"Feature","geometry":{"type":"Point","coordinates":[-0.1187,51.5019]},"properties":{"name":"London","labelRank":0}},{"type":"Feature","geometry":{"type":"Point","coordinates":[28.9743,41.0176]},"properties":{"name":"Istanbul","labelRank":0}},{"type":"Feature","geometry":{"type":"Point","coordinates":[46.7205,24.6345]},"properties":{"name":"Riyadh","labelRank":0}},{"type":"Feature","geometry":{"type":"Point","coordinates":[18.433,-33.9181]},"properties":{"name":"Cape Town","labelRank":0}},{"type":"Feature","geometry":{"type":"Point","coordinates":[37.6136,55.7541]},"properties":{"name":"Moscow","labelRank":0}},{"type":"Feature","geometry":{"type":"Point","coordinates":[-99.1329,19.4444]},"properties":{"name":"Mexico City","labelRank":0}},{"type":"Feature","geometry":{"type":"Point","coordinates":[3.3896,6.4452]},"properties":{"name":"Lagos","labelRank":0}},{"type":"Feature","geometry":{"type":"Point","coordinates":[12.4813,41.8979]},"properties":{"name":"Rome","labelRank":0}},{"type":"Feature","geometry":{"type":"Point","coordinates":[116.3942,39.9017]},"properties":{"name":"Beijing","labelRank":0}},{"type":"Feature","geometry":{"type":"Point","coordinates":[36.8147,-1.2814]},"properties":{"name":"Nairobi","labelRank":0}},{"type":"Feature","geometry":{"type":"Point","coordinates":[106.8275,-6.1725]},"properties":{"name":"Jakarta","labelRank":0}},{"type":"Feature","geometry":{"type":"Point","coordinates":[-74.0853,4.5984]},"properties":{"name":"Bogota","labelRank":0}},{"type":"Feature","geometry":{"type":"Point","coordinates":[31.248,30.0519]},"properties":{"name":"Cairo","labelRank":0}},{"type":"Feature","geometry":{"type":"Point","coordinates":[121.4346,31.2184]},"properties":{"name":"Shanghai","labelRank":0}},{"type":"Feature","geometry":{"type":"Point","coordinates":[139.7495,35.687]},"properties":{"name":"Tokyo","labelRank":0}},{"type":"Feature","geometry":{"type":"Point","coordinates":[72.8758,19.0684]},"properties":{"name":"Mumbai","labelRank":0}},{"type":"Feature","geometry":{"type":"Point","coordinates":[2.353,48.8581]},"properties":{"name":"Paris","labelRank":0}},{"type":"Feature","geometry":{"type":"Point","coordinates":[-70.6505,-33.4402]},"properties":{"name":"Santiago","labelRank":0}},{"type":"Feature","geometry":{"type":"Point","coordinates":[88.3691,22.5696]},"properties":{"name":"Kolkata","labelRank":0}},{"type":"Feature","geometry":{"type":"Point","coordinates":[-43.2121,-22.9073]},"properties":{"name":"Rio de Janeiro","labelRank":0}},{"type":"Feature","geometry":{"type":"Point","coordinates":[-46.627,-23.5567]},"properties":{"name":"São Paulo","labelRank":0}},{"type":"Feature","geometry":{"type":"Point","coordinates":[151.2125,-33.8714]},"properties":{"name":"Sydney","labelRank":0}},{"type":"Feature","geometry":{"type":"Point","coordinates":[103.8539,1.295]},"properties":{"name":"Singapore","labelRank":0}},{"type":"Feature","geometry":{"type":"Point","coordinates":[114.1831,22.3069]},"properties":{"name":"Hong Kong","labelRank":0}}]}